OBJECT_NAME,OBJECT_ID,EPOCH,MEAN_MOTION,ECCENTRICITY,INCLINATION,RA_OF_ASC_NODE,ARG_OF_PERICENTER,MEAN_ANOMALY,EPHEMERIS_TYPE,CLASSIFICATION_TYPE,NORAD_CAT_ID,ELEMENT_SET_NO,REV_AT_EPOCH,BSTAR,MEAN_MOTION_DOT,MEAN_MOTION_DDOT
TYVAK-0173,2021-059P,2026-07-16T18:32:20.958720,14.81974160,.00071839,96.0073,266.7748,293.2065,66.8396,0,U,48892,999,27262,.10290039E-3,.784E-5,0
MANDRAKE 2 ABLE,2021-059AE,2026-07-16T12:10:23.795040,15.56108398,.00038706,97.7024,29.5526,228.1579,131.9345,0,U,48907,999,28168,.20422737E-3,.14158E-3,0
MANDRAKE 2 BAKER,2021-059AF,2026-07-16T23:46:49.262880,15.61036165,.00028518,97.6987,33.1604,210.6325,149.4765,0,U,48908,999,28194,.2107038E-3,.176E-3,0
PACE-1,2021-059AG,2026-07-16T23:55:39.127296,15.85624225,.0003427,97.6726,39.6317,179.1334,180.9943,0,U,48909,999,28251,.36926722E-3,.89362E-3,0
YAM-3,2021-059AN,2026-07-17T07:15:14.341248,15.49176865,.00040558,97.6994,27.2401,231.1013,128.9876,0,U,48915,999,28165,.12205074E-3,.6543E-4,0
FARADAY_PHOENIX,2021-059AX,2026-07-16T13:11:43.204704,15.87454958,.00059662,97.6775,39.0457,195.9136,164.1948,0,U,48924,999,28230,.56700913E-3,.151208E-2,0
DEMO8 (TENZING),2021-059CA,2026-07-17T06:46:24.839616,15.56081331,.00058399,97.7010,34.0172,222.1613,137.9192,0,U,48951,999,28198,.18172998E-3,.12576E-3,0
FENGYUN 3E,2021-062A,2026-07-17T06:59:06.671616,14.19906313,.0002164,98.7496,201.3646,35.4309,324.7011,0,U,49008,999,26085,.47509006E-4,.57E-6,0
ISS (NAUKA),2021-066A,2026-07-17T06:00:20.087136,15.49030578,.00067955,51.6315,151.3159,305.6667,54.3688,0,U,49044,999,57534,.73577935E-4,.361E-4,0
STARLINK-3100,2021-082Q,2026-07-16T17:57:47.439072,14.98323421,.00031315,70.0006,329.0431,271.3759,88.7041,0,U,49144,999,26531,.58786373E-4,.608E-5,0
CUTE,2021-088D,2026-07-16T20:06:54.944352,16.41647044,.00142162,97.3907,300.4441,277.7997,82.1689,0,U,49263,999,26730,.41832026E-3,.8921004E-1,.2550522E-5
2021-091B,2021-091B,2026-07-17T07:17:43.173024,15.18687406,.00118469,97.4471,25.4222,299.9868,60.0190,0,U,49316,999,26355,.67418113E-4,.1332E-4,0
SDGSAT 1,2021-100A,2026-07-17T07:57:36.128160,15.19244087,.00099703,97.2612,244.1283,156.0067,204.1635,0,U,49387,999,26049,.81187929E-4,.1647E-4,0
TEIKYOSAT-4 (OORURI),2021-102B,2026-07-17T00:22:54.173856,15.09602724,.00119066,97.3662,226.3399,182.2839,177.8339,0,U,49396,999,25722,.68994604E-4,.1049E-4,0
Z-SAT,2021-102E,2026-07-17T07:33:59.842944,15.18470352,.00177618,97.3305,232.7250,137.6037,222.6573,0,U,49399,999,25801,.95431575E-4,.1907E-4,0
HIBARI,2021-102F,2026-07-17T02:47:28.197312,15.32303092,.00132863,97.3217,243.6868,95.7219,264.5538,0,U,49400,999,25877,.20157733E-3,.6225E-4,0
KOSEN-1,2021-102H,2026-07-17T03:41:12.989184,15.27230151,.00154357,97.3168,239.7337,101.5078,258.7896,0,U,49402,999,25859,.1492243E-3,.3921E-4,0
GLOBAL-14,2021-106A,2026-07-17T05:12:02.129184,15.51894609,.00181105,42.0038,112.4286,237.3645,122.5452,0,U,49469,999,26279,.26114346E-3,.15885E-3,0
GAOFEN-3 02,2021-109A,2026-07-17T07:08:37.711680,14.42210739,.00013332,98.4088,205.9673,253.2531,106.8513,0,U,49495,999,24465,-.893159E-5,-.73E-6,0
GLOBAL-12,2021-115BA,2026-07-16T10:55:12.126144,15.55381310,.0002904,53.1939,263.6186,72.6908,287.4421,0,U,49772,999,26045,.28962E-3,.1961E-3,0
GLOBAL-13,2021-115BB,2026-07-17T05:35:11.328000,15.47158506,.0000393,53.1964,271.6350,152.0202,208.0828,0,U,49773,999,26041,.22059285E-3,.1096E-3,0
GLOBAL-17,2021-120A,2026-07-17T05:58:45.175872,15.53782157,.00134176,41.9928,229.9463,106.8895,253.3422,0,U,49949,999,25957,.22858931E-3,.14814E-3,0
GLOBAL-16,2021-120B,2026-07-17T05:45:51.163200,15.51539849,.00114371,41.9931,234.3140,96.3271,263.8876,0,U,49950,999,25951,.22306972E-3,.13288E-3,0
XW-3 (CAS-9),2021-131B,2026-07-17T07:42:21.667104,14.41382106,.00044502,98.4992,290.5482,25.0845,335.0559,0,U,50466,999,23945,.27460633E-4,.45E-6,0
ION SCV-004,2022-002K,2026-07-17T05:49:06.759840,15.30719852,.00058135,97.2813,255.3389,237.8661,122.2017,0,U,50993,999,24989,.92519858E-4,.2673E-4,0
ETV-A1,2022-002CE,2026-07-17T08:07:52.217184,15.41261912,.00041182,97.2859,264.5671,216.0198,144.0772,0,U,51060,999,25048,.15935736E-3,.6544E-4,0
BRO-5,2022-002CF,2026-07-17T07:20:03.586848,15.48959186,.00056088,97.2981,272.2741,195.4390,164.6691,0,U,51061,999,25091,.32033493E-3,.17239E-3,0
LUDI TANCE 1-01A (L-SAR 01A),2022-007A,2026-07-17T07:10:15.428352,14.88410031,.00016098,97.8106,205.2915,90.5511,269.5891,0,U,51284,999,24295,.34706584E-4,.267E-5,0
LUDI TANCE 1-01B (L-SAR 01B),2022-018A,2026-07-17T06:21:51.888960,14.88415225,.00016496,97.8111,205.2567,91.4886,268.6520,0,U,51822,999,23818,.31566762E-4,.238E-5,0
