TYVAK-0173              
1 48892U 21059P   26197.77246480  .00000784  00000+0  10290-3 0  9994
2 48892  96.0073 266.7748 0007183 293.2065  66.8396 14.81974160272622
MANDRAKE 2 ABLE         
1 48907U 21059AE  26197.50721985  .00014158  00000+0  20423-3 0  9999
2 48907  97.7024  29.5526 0003870 228.1579 131.9345 15.56108398281687
MANDRAKE 2 BAKER        
1 48908U 21059AF  26197.99084795  .00017600  00000+0  21070-3 0  9998
2 48908  97.6987  33.1604 0002851 210.6325 149.4765 15.61036165281943
PACE-1                  
1 48909U 21059AG  26197.99698064  .00089362  00000+0  36927-3 0  9990
2 48909  97.6726  39.6317 0003427 179.1334 180.9943 15.85624225282514
YAM-3                   
1 48915U 21059AN  26198.30224932  .00006543  00000+0  12205-3 0  9995
2 48915  97.6994  27.2401 0004055 231.1013 128.9876 15.49176865281659
FARADAY_PHOENIX         
1 48924U 21059AX  26197.54980561  .00151208  00000+0  56701-3 0  9995
2 48924  97.6775  39.0457 0005966 195.9136 164.1948 15.87454958282302
DEMO8 (TENZING)         
1 48951U 21059CA  26198.28223194  .00012576  00000+0  18173-3 0  9994
2 48951  97.7010  34.0172 0005839 222.1613 137.9192 15.56081331281985
FENGYUN 3E              
1 49008U 21062A   26198.29104944  .00000057  00000+0  47509-4 0  9991
2 49008  98.7496 201.3646 0002164  35.4309 324.7011 14.19906313260851
ISS (NAUKA)             
1 49044U 21066A   26198.25023249  .00003610  00000+0  73578-4 0  9992
2 49044  51.6315 151.3159 0006795 305.6667  54.3688 15.49030578575349
STARLINK-3100           
1 49144U 21082Q   26197.74846573  .00000608  00000+0  58786-4 0  9995
2 49144  70.0006 329.0431 0003131 271.3759  88.7041 14.98323421265313
CUTE                    
1 49263U 21088D   26197.83813593  .08921004  25505-5  41832-3 0  9995
2 49263  97.3907 300.4441 0014216 277.7997  82.1689 16.41647044267308
2021-091B               
1 49316U 21091B   26198.30397191  .00001332  00000+0  67418-4 0  9993
2 49316  97.4471  25.4222 0011846 299.9868  60.0190 15.18687406263558
SDGSAT 1                
1 49387U 21100A   26198.33166815  .00001647  00000+0  81188-4 0  9991
2 49387  97.2612 244.1283 0009970 156.0067 204.1635 15.19244087260497
TEIKYOSAT-4 (OORURI)    
1 49396U 21102B   26198.01590479  .00001049  00000+0  68995-4 0  9992
2 49396  97.3662 226.3399 0011906 182.2839 177.8339 15.09602724257222
Z-SAT                   
1 49399U 21102E   26198.31527596  .00001907  00000+0  95432-4 0  9997
2 49399  97.3305 232.7250 0017761 137.6037 222.6573 15.18470352258012
HIBARI                  
1 49400U 21102F   26198.11629858  .00006225  00000+0  20158-3 0  9992
2 49400  97.3217 243.6868 0013286  95.7219 264.5538 15.32303092258778
KOSEN-1                 
1 49402U 21102H   26198.15362256  .00003921  00000+0  14922-3 0  9996
2 49402  97.3168 239.7337 0015435 101.5078 258.7896 15.27230151258590
GLOBAL-14               
1 49469U 21106A   26198.21669131  .00015885  00000+0  26114-3 0  9990
2 49469  42.0038 112.4286 0018110 237.3645 122.5452 15.51894609262791
GAOFEN-3 02             
1 49495U 21109A   26198.29765870 -.00000073  00000+0 -89316-5 0  9997
2 49495  98.4088 205.9673 0001333 253.2531 106.8513 14.42210739244651
GLOBAL-12               
1 49772U 21115BA  26197.45500146  .00019610  00000+0  28962-3 0  9995
2 49772  53.1939 263.6186 0002904  72.6908 287.4421 15.55381310260457
GLOBAL-13               
1 49773U 21115BB  26198.23277000  .00010960  00000+0  22059-3 0  9993
2 49773  53.1964 271.6350 0000393 152.0202 208.0828 15.47158506260414
GLOBAL-17               
1 49949U 21120A   26198.24913398  .00014814  00000+0  22859-3 0  9992
2 49949  41.9928 229.9463 0013417 106.8895 253.3422 15.53782157259571
GLOBAL-16               
1 49950U 21120B   26198.24017550  .00013288  00000+0  22307-3 0  9991
2 49950  41.9931 234.3140 0011437  96.3271 263.8876 15.51539849259519
XW-3 (CAS-9)            
1 50466U 21131B   26198.32108411  .00000045  00000+0  27461-4 0  9997
2 50466  98.4992 290.5482 0004450  25.0845 335.0559 14.41382106239454
ION SCV-004             
1 50993U 22002K   26198.24243935  .00002673  00000+0  92520-4 0  9999
2 50993  97.2813 255.3389 0005813 237.8661 122.2017 15.30719852249891
ETV-A1                  
1 51060U 22002CE  26198.33879881  .00006544  00000+0  15936-3 0  9996
2 51060  97.2859 264.5671 0004118 216.0198 144.0772 15.41261912250482
BRO-5                   
1 51061U 22002CF  26198.30559707  .00017239  00000+0  32033-3 0  9996
2 51061  97.2981 272.2741 0005608 195.4390 164.6691 15.48959186250912
LUDI TANCE 1-01A (L-SA*)
1 51284U 22007A   26198.29878968  .00000267  00000+0  34707-4 0  9993
2 51284  97.8106 205.2915 0001609  90.5511 269.5891 14.88410031242956
LUDI TANCE 1-01B (L-SA*)
1 51822U 22018A   26198.26518390  .00000238  00000+0  31567-4 0  9999
2 51822  97.8111 205.2567 0001649  91.4886 268.6520 14.88415225238181
